{"type":"FeatureCollection","features":[{"type":"Feature","properties":{},"geometry":{"type":"MultiPolygon","coordinates":[[[[-67.49201,18.38906],[-67.48926,18.38128],[-67.48026,18.37678],[-67.47616,18.37645],[-67.47414,18.37908],[-67.47022,18.38045],[-67.46942,18.38256],[-67.46956,18.38439],[-67.47531,18.39318],[-67.48073,18.39494],[-67.48462,18.39466],[-67.48626,18.39258],[-67.4911,18.39067],[-67.49201,18.38906]]],[[[-67.95063,18.08728],[-67.9518,18.08421],[-67.94887,18.08011],[-67.94652,18.07772],[-67.93883,18.07409],[-67.93715,18.0709],[-67.92484,18.06066],[-67.9125,18.05729],[-67.90195,18.05149],[-67.89375,18.04842],[-67.8832,18.04842],[-67.87851,18.04944],[-67.87441,18.05217],[-67.87072,18.05285],[-67.8672,18.05661],[-67.85786,18.06066],[-67.85258,18.06699],[-67.85024,18.06699],[-67.84731,18.0704],[-67.84731,18.07278],[-67.84555,18.07586],[-67.84321,18.07756],[-67.8391,18.07858],[-67.83676,18.08131],[-67.835,18.08883],[-67.83442,18.10385],[-67.835,18.11478],[-67.84086,18.11989],[-67.83969,18.12301],[-67.84203,18.12555],[-67.85024,18.12624],[-67.85786,18.12301],[-67.86251,18.12286],[-67.87072,18.12013],[-67.87502,18.11732],[-67.88264,18.11664],[-67.88909,18.11903],[-67.90374,18.12245],[-67.91253,18.1221],[-67.92601,18.11937],[-67.93656,18.11494],[-67.93949,18.10879],[-67.94008,18.0996],[-67.94447,18.09513],[-67.94595,18.09035],[-67.95063,18.08728]]],[[[-67.95619,18.15816],[-67.95554,18.15559],[-67.94941,18.15348],[-67.94607,18.1546],[-67.94336,18.15856],[-67.94419,18.16323],[-67.94781,18.16462],[-67.95055,18.16456],[-67.95478,18.16269],[-67.95619,18.15816]]]]}}]}